[{"OBJECT_NAME":"STARLINK-35980","OBJECT_ID":"2025-270N","EPOCH":"2026-03-09T23:01:03.232416","MEAN_MOTION":15.2759051,"ECCENTRICITY":9.019e-5,"INCLINATION":43.0039,"RA_OF_ASC_NODE":54.951,"ARG_OF_PERICENTER":207.577,"MEAN_ANOMALY":152.5034,"EPHEMERIS_TYPE":0,"CLASSIFICATION_TYPE":"U","NORAD_CAT_ID":66600,"ELEMENT_SET_NO":999,"REV_AT_EPOCH":1764,"BSTAR":0.0009490438,"MEAN_MOTION_DOT":0.00025954,"MEAN_MOTION_DDOT":0},{"OBJECT_NAME":"ELECTRON KICK STAGE R\/B","OBJECT_ID":"2024-047B","EPOCH":"2026-03-09T21:11:54.433824","MEAN_MOTION":15.27307897,"ECCENTRICITY":0.00092426,"INCLINATION":97.6338,"RA_OF_ASC_NODE":46.9382,"ARG_OF_PERICENTER":20.6031,"MEAN_ANOMALY":339.5579,"EPHEMERIS_TYPE":0,"CLASSIFICATION_TYPE":"U","NORAD_CAT_ID":59225,"ELEMENT_SET_NO":999,"REV_AT_EPOCH":10999,"BSTAR":0.00091229405,"MEAN_MOTION_DOT":0.00024409,"MEAN_MOTION_DDOT":0}]
